OBJECT_NAME,OBJECT_ID,EPOCH,MEAN_MOTION,ECCENTRICITY,INCLINATION,RA_OF_ASC_NODE,ARG_OF_PERICENTER,MEAN_ANOMALY,EPHEMERIS_TYPE,CLASSIFICATION_TYPE,NORAD_CAT_ID,ELEMENT_SET_NO,REV_AT_EPOCH,BSTAR,MEAN_MOTION_DOT,MEAN_MOTION_DDOT
ONEWEB-0198,2021-031G,2026-06-30T07:39:18.327168,13.14503385,.00023392,87.8963,287.0938,107.8553,252.2832,0,U,48216,999,25021,-.36486863E-3,-.122E-5,0
ONEWEB-0189,2021-031H,2026-06-30T07:57:21.919680,13.14504177,.0002242,87.8974,287.0789,106.8741,253.2634,0,U,48217,999,24995,-.19798238E-3,-.61E-6,0
ONEWEB-0196,2021-031J,2026-06-30T07:25:23.866464,13.14503691,.00021227,87.8975,287.0918,102.2271,257.9096,0,U,48218,999,24995,-.14235852E-3,-.4E-6,0
ONEWEB-0183,2021-031K,2026-06-30T08:38:28.036608,13.14504687,.00019983,87.8970,287.0797,94.8370,265.2988,0,U,48219,999,25005,.59574804E-3,.234E-5,0
ONEWEB-0185,2021-031L,2026-06-30T07:26:32.125920,13.14503479,.00023564,87.8980,287.0841,94.9203,265.2196,0,U,48220,999,24997,-.15532986E-3,-.45E-6,0
ONEWEB-0187,2021-031M,2026-06-30T08:47:24.481248,13.14501501,.00021786,87.8969,287.0873,101.0513,259.0862,0,U,48221,999,24999,.60748035E-3,.238E-5,0
ONEWEB-0192,2021-031N,2026-06-30T08:04:13.709856,13.14502502,.000205,87.8970,287.0838,103.4347,256.7012,0,U,48222,999,24990,-.56402738E-4,-.8E-7,0
ONEWEB-0219,2021-031P,2026-06-30T07:34:31.454976,13.14502269,.00022248,87.8975,287.0802,99.2604,260.8778,0,U,48223,999,25010,-.25418434E-3,-.81E-6,0
ONEWEB-0202,2021-031Q,2026-06-30T08:56:45.011616,13.14503139,.00023105,87.8974,287.0814,116.9013,243.2353,0,U,48224,999,25009,.35320112E-3,.144E-5,0
ONEWEB-0204,2021-031R,2026-06-30T07:56:12.991488,13.14502816,.00020237,87.8973,287.0844,88.0930,272.0432,0,U,48225,999,24998,-.28464271E-3,-.93E-6,0
ONEWEB-0205,2021-031S,2026-06-30T07:20:49.759872,13.14502201,.00022716,87.8981,287.0833,101.4770,258.6615,0,U,48226,999,24999,.98764522E-4,.49E-6,0
ONEWEB-0206,2021-031T,2026-06-30T08:31:36.369120,13.14503589,.00017828,87.8975,287.0746,99.5607,260.5725,0,U,48227,999,24995,.18095761E-3,.8E-6,0
ONEWEB-0182,2021-031U,2026-06-30T08:24:46.611072,13.14503698,.0001981,87.8973,287.0828,93.5416,266.5940,0,U,48228,999,25016,.37970984E-3,.154E-5,0
ONEWEB-0186,2021-031V,2026-06-30T06:51:08.942688,13.14503405,.00020941,87.8983,287.0874,100.8878,259.2488,0,U,48229,999,25010,.73435902E-3,.285E-5,0
ONEWEB-0181,2021-031W,2026-06-30T08:08:46.790016,13.14504543,.00021628,87.8962,287.1037,103.6640,256.4730,0,U,48230,999,24996,.16680844E-3,.75E-6,0
ONEWEB-0188,2021-031X,2026-06-30T09:03:34.792992,13.14501551,.00020239,87.8964,287.0954,99.5806,260.5553,0,U,48231,999,24987,-.21547538E-4,.5E-7,0
ONEWEB-0220,2021-031Y,2026-06-30T08:11:03.731424,13.14503284,.00022946,87.8979,287.0778,98.1387,262.0003,0,U,48232,999,25013,.10945191E-3,.53E-6,0
ONEWEB-0165,2021-031Z,2026-06-30T07:02:34.810080,13.14502887,.0002264,87.8971,287.0991,108.4503,251.6873,0,U,48233,999,25008,.55258478E-3,.218E-5,0
ONEWEB-0199,2021-031AA,2026-06-30T08:29:19.934016,13.14505293,.00017538,87.8969,287.0747,93.6402,266.4928,0,U,48234,999,24999,.2153667E-3,.93E-6,0
ONEWEB-0203,2021-031AB,2026-06-30T08:15:37.445760,13.14505782,.00019182,87.8977,287.0792,104.3874,255.7469,0,U,48235,999,25000,-.11789068E-2,-.424E-5,0
ONEWEB-0197,2021-031AC,2026-06-30T07:38:52.987776,13.14501583,.00021013,87.8968,287.0691,93.7864,266.3506,0,U,48236,999,24991,-.38325413E-3,-.129E-5,0
ONEWEB-0194,2021-031AD,2026-06-30T07:09:25.367328,13.14503261,.0001768,87.8976,287.0957,103.0078,257.1249,0,U,48237,999,25008,.3280342E-3,.134E-5,0
ONEWEB-0193,2021-031AE,2026-06-30T07:32:14.455680,13.14509559,.00015966,87.8970,287.0827,104.7769,255.3538,0,U,48238,999,25003,-.37445102E-2,-.1375E-4,0
ONEWEB-0191,2021-031AF,2026-06-30T07:48:16.433280,13.14505931,.000201,87.8982,287.0806,95.3664,264.7695,0,U,48239,999,24989,-.50669533E-3,-.175E-5,0
ONEWEB-0195,2021-031AG,2026-06-30T07:15:07.754112,13.14503032,.00022919,87.8981,287.0856,106.9657,253.1724,0,U,48240,999,24987,.32618539E-3,.134E-5,0
ONEWEB-0201,2021-031AH,2026-06-30T06:58:11.066304,13.14501594,.00021499,87.8971,287.1029,94.1209,266.0166,0,U,48241,999,25010,.82568104E-3,.319E-5,0
ONEWEB-0207,2021-031AJ,2026-06-30T08:19:03.531360,13.14503940,.00021044,87.8974,287.0774,92.1823,267.9548,0,U,48242,999,25002,.76350282E-4,.41E-6,0
ONEWEB-0208,2021-031AK,2026-06-30T07:52:47.277408,13.14504123,.00022119,87.8974,287.0870,108.1348,252.0023,0,U,48243,999,25003,-.53728823E-3,-.186E-5,0
ONEWEB-0200,2021-031AL,2026-06-30T08:49:53.348448,13.14503326,.00020758,87.8981,287.0667,101.1260,259.0104,0,U,48244,999,24996,.37706978E-3,.153E-5,0
ONEWEB-0217,2021-031AM,2026-06-30T07:23:06.801504,13.14502077,.00022103,87.8982,287.0828,108.5460,251.5911,0,U,48245,999,24990,-.29489712E-4,.2E-7,0
