ONEWEB-0198             
1 48216U 21031G   26181.31896212 -.00000122  00000+0 -36487-3 0  9995
2 48216  87.8963 287.0938 0002339 107.8553 252.2832 13.14503385250214
ONEWEB-0189             
1 48217U 21031H   26181.33150370 -.00000061  00000+0 -19798-3 0  9994
2 48217  87.8974 287.0789 0002242 106.8741 253.2634 13.14504177249952
ONEWEB-0196             
1 48218U 21031J   26181.30930401 -.00000040  00000+0 -14236-3 0  9992
2 48218  87.8975 287.0918 0002122 102.2271 257.9096 13.14503691249956
ONEWEB-0183             
1 48219U 21031K   26181.36004672  .00000234  00000+0  59575-3 0  9999
2 48219  87.8970 287.0797 0001998  94.8370 265.2988 13.14504687250054
ONEWEB-0185             
1 48220U 21031L   26181.31009405 -.00000045  00000+0 -15533-3 0  9993
2 48220  87.8980 287.0841 0002356  94.9203 265.2196 13.14503479249970
ONEWEB-0187             
1 48221U 21031M   26181.36625557  .00000238  00000+0  60748-3 0  9991
2 48221  87.8969 287.0873 0002178 101.0513 259.0862 13.14501501249996
ONEWEB-0192             
1 48222U 21031N   26181.33626979 -.00000008  00000+0 -56403-4 0  9999
2 48222  87.8970 287.0838 0002050 103.4347 256.7012 13.14502502249904
ONEWEB-0219             
1 48223U 21031P   26181.31564184 -.00000081  00000+0 -25418-3 0  9999
2 48223  87.8975 287.0802 0002224  99.2604 260.8778 13.14502269250101
ONEWEB-0202             
1 48224U 21031Q   26181.37274319  .00000144  00000+0  35320-3 0  9995
2 48224  87.8974 287.0814 0002310 116.9013 243.2353 13.14503139250090
ONEWEB-0204             
1 48225U 21031R   26181.33070592 -.00000093  00000+0 -28464-3 0  9995
2 48225  87.8973 287.0844 0002023  88.0930 272.0432 13.14502816249986
ONEWEB-0205             
1 48226U 21031S   26181.30613148  .00000049  00000+0  98765-4 0  9994
2 48226  87.8981 287.0833 0002271 101.4770 258.6615 13.14502201249993
ONEWEB-0206             
1 48227U 21031T   26181.35528205  .00000080  00000+0  18096-3 0  9992
2 48227  87.8975 287.0746 0001782  99.5607 260.5725 13.14503589249952
ONEWEB-0182             
1 48228U 21031U   26181.35053948  .00000154  00000+0  37971-3 0  9995
2 48228  87.8973 287.0828 0001981  93.5416 266.5940 13.14503698250166
ONEWEB-0186             
1 48229U 21031V   26181.28552017  .00000285  00000+0  73436-3 0  9990
2 48229  87.8983 287.0874 0002094 100.8878 259.2488 13.14503405250105
ONEWEB-0181             
1 48230U 21031W   26181.33943044  .00000075  00000+0  16681-3 0  9998
2 48230  87.8962 287.1037 0002162 103.6640 256.4730 13.14504543249965
ONEWEB-0188             
1 48231U 21031X   26181.37748603  .00000005  00000+0 -21548-4 0  9990
2 48231  87.8964 287.0954 0002023  99.5806 260.5553 13.14501551249873
ONEWEB-0220             
1 48232U 21031Y   26181.34101541  .00000053  00000+0  10945-3 0  9992
2 48232  87.8979 287.0778 0002294  98.1387 262.0003 13.14503284250136
ONEWEB-0165             
1 48233U 21031Z   26181.29345845  .00000218  00000+0  55258-3 0  9993
2 48233  87.8971 287.0991 0002264 108.4503 251.6873 13.14502887250089
ONEWEB-0199             
1 48234U 21031AA  26181.35370294  .00000093  00000+0  21537-3 0  9991
2 48234  87.8969 287.0747 0001753  93.6402 266.4928 13.14505293249998
ONEWEB-0203             
1 48235U 21031AB  26181.34418340 -.00000424  00000+0 -11789-2 0  9993
2 48235  87.8977 287.0792 0001918 104.3874 255.7469 13.14505782250002
ONEWEB-0197             
1 48236U 21031AC  26181.31866884 -.00000129  00000+0 -38325-3 0  9999
2 48236  87.8968 287.0691 0002101  93.7864 266.3506 13.14501583249919
ONEWEB-0194             
1 48237U 21031AD  26181.29821027  .00000134  00000+0  32803-3 0  9996
2 48237  87.8976 287.0957 0001768 103.0078 257.1249 13.14503261250081
ONEWEB-0193             
1 48238U 21031AE  26181.31405620 -.00001375  00000+0 -37445-2 0  9993
2 48238  87.8970 287.0827 0001596 104.7769 255.3538 13.14509559250038
ONEWEB-0191             
1 48239U 21031AF  26181.32519020 -.00000175  00000+0 -50670-3 0  9998
2 48239  87.8982 287.0806 0002010  95.3664 264.7695 13.14505931249890
ONEWEB-0195             
1 48240U 21031AG  26181.30217308  .00000134  00000+0  32619-3 0  9998
2 48240  87.8981 287.0856 0002291 106.9657 253.1724 13.14503032249871
ONEWEB-0201             
1 48241U 21031AH  26181.29040586  .00000319  00000+0  82568-3 0  9992
2 48241  87.8971 287.1029 0002149  94.1209 266.0166 13.14501594250109
ONEWEB-0207             
1 48242U 21031AJ  26181.34656865  .00000041  00000+0  76350-4 0  9997
2 48242  87.8974 287.0774 0002104  92.1823 267.9548 13.14503940250022
ONEWEB-0208             
1 48243U 21031AK  26181.32832497 -.00000186  00000+0 -53729-3 0  9999
2 48243  87.8974 287.0870 0002211 108.1348 252.0023 13.14504123250037
ONEWEB-0200             
1 48244U 21031AL  26181.36797857  .00000153  00000+0  37707-3 0  9994
2 48244  87.8981 287.0667 0002075 101.1260 259.0104 13.14503326249965
ONEWEB-0217             
1 48245U 21031AM  26181.30771761  .00000002  00000+0 -29490-4 0  9990
2 48245  87.8982 287.0828 0002210 108.5460 251.5911 13.14502077249909
